[{"OBJECT_NAME":"STARLINK-36193","OBJECT_ID":"2025-298AA","EPOCH":"2026-03-09T22:00:01.999584","MEAN_MOTION":14.99161072,"ECCENTRICITY":0.00026795,"INCLINATION":70.0009,"RA_OF_ASC_NODE":13.8189,"ARG_OF_PERICENTER":268.8131,"MEAN_ANOMALY":76.3461,"EPHEMERIS_TYPE":0,"CLASSIFICATION_TYPE":"U","NORAD_CAT_ID":67099,"ELEMENT_SET_NO":999,"REV_AT_EPOCH":590,"BSTAR":-0.001795619,"MEAN_MOTION_DOT":-0.00021917,"MEAN_MOTION_DDOT":0},{"OBJECT_NAME":"DELTA 1 DEB","OBJECT_ID":"1975-052MU","EPOCH":"2026-02-28T13:52:08.081184","MEAN_MOTION":15.00067598,"ECCENTRICITY":0.0002701,"INCLINATION":98.1978,"RA_OF_ASC_NODE":183.1796,"ARG_OF_PERICENTER":358.8202,"MEAN_ANOMALY":66.2186,"EPHEMERIS_TYPE":0,"CLASSIFICATION_TYPE":"U","NORAD_CAT_ID":42659,"ELEMENT_SET_NO":999,"REV_AT_EPOCH":66142,"BSTAR":0.00087726141,"MEAN_MOTION_DOT":0.00010875,"MEAN_MOTION_DDOT":0}]
